IRIDIUM 171             
1 43929U 19002H   25256.94776593  .00000088  00000+0  24263-4 0  9995
2 43929  86.3940 109.3558 0002361  81.5487 278.5976 14.34217322349363
IRIDIUM 170             
1 43930U 19002J   25257.01238284  .00000642  00000+0  97910-4 0  9991
2 43930  86.6055 109.0639 0002438  85.9472 274.2023 14.72256345358624
IRIDIUM 167             
1 43931U 19002K   25257.01119259 -.00000009  00000+0 -10334-4 0  9996
2 43931  86.3930 109.0730 0002460  84.5788 275.5689 14.34217458349370
IRIDIUM 181             
1 56726U 23068S   25257.17547715  .00000311  00000+0  86510-4 0  9991
2 56726  86.4582 172.1059 0002372  70.1027 290.0429 14.43312264122626
IRIDIUM 177             
1 56727U 23068T   25256.96722249  .00000314  00000+0  37814-4 0  9991
2 56727  86.1921  99.9841 0002473  82.3272 277.8230 14.80227337125505
IRIDIUM 174             
1 56728U 23068U   25257.00002866  .00000596  00000+0  90584-4 0  9999
2 56728  86.6065 109.1886 0002092  95.0745 265.0711 14.72247144125384
IRIDIUM 178             
1 56729U 23068V   25257.09156080  .00000935  00000+0  11960-3 0  9994
2 56729  86.6577 140.7564 0002540  88.0956 272.0556 14.80227544125523
IRIDIUM 179             
1 56730U 23068W   25257.15379335  .00000956  00000+0  12235-3 0  9992
2 56730  86.6836 148.8715 0002889  84.8056 275.3496 14.80230094125535
